[{"OBJECT_NAME":"QB50P2","OBJECT_ID":"2014-033Y","EPOCH":"2026-04-05T05:36:23.402880","MEAN_MOTION":15.14200407,"ECCENTRICITY":0.00093527,"INCLINATION":98.0756,"RA_OF_ASC_NODE":87.6349,"ARG_OF_PERICENTER":70.0286,"MEAN_ANOMALY":290.195,"EPHEMERIS_TYPE":0,"CLASSIFICATION_TYPE":"U","NORAD_CAT_ID":40032,"ELEMENT_SET_NO":999,"REV_AT_EPOCH":64162,"BSTAR":0.00059827911,"MEAN_MOTION_DOT":0.00010868,"MEAN_MOTION_DDOT":0},{"OBJECT_NAME":"PERSEUS-M1","OBJECT_ID":"2014-033AF","EPOCH":"2026-04-05T02:32:55.889088","MEAN_MOTION":14.95383648,"ECCENTRICITY":0.00117747,"INCLINATION":97.9585,"RA_OF_ASC_NODE":38.0792,"ARG_OF_PERICENTER":173.0287,"MEAN_ANOMALY":187.1099,"EPHEMERIS_TYPE":0,"CLASSIFICATION_TYPE":"U","NORAD_CAT_ID":40039,"ELEMENT_SET_NO":999,"REV_AT_EPOCH":63971,"BSTAR":0.00028095369,"MEAN_MOTION_DOT":3.045e-5,"MEAN_MOTION_DDOT":0},{"OBJECT_NAME":"POLYITAN-1","OBJECT_ID":"2014-033AJ","EPOCH":"2026-04-05T00:41:08.181888","MEAN_MOTION":15.30791781,"ECCENTRICITY":0.00087065,"INCLINATION":98.1015,"RA_OF_ASC_NODE":114.4959,"ARG_OF_PERICENTER":55.3182,"MEAN_ANOMALY":304.8876,"EPHEMERIS_TYPE":0,"CLASSIFICATION_TYPE":"U","NORAD_CAT_ID":40042,"ELEMENT_SET_NO":999,"REV_AT_EPOCH":64239,"BSTAR":0.00076721893,"MEAN_MOTION_DOT":0.00022814,"MEAN_MOTION_DDOT":0},{"OBJECT_NAME":"TIGRISAT","OBJECT_ID":"2014-033AK","EPOCH":"2026-04-05T03:24:13.254048","MEAN_MOTION":14.84863942,"ECCENTRICITY":0.00484677,"INCLINATION":97.7728,"RA_OF_ASC_NODE":246.8817,"ARG_OF_PERICENTER":315.318,"MEAN_ANOMALY":44.4134,"EPHEMERIS_TYPE":0,"CLASSIFICATION_TYPE":"U","NORAD_CAT_ID":40043,"ELEMENT_SET_NO":999,"REV_AT_EPOCH":63478,"BSTAR":0.00035221817,"MEAN_MOTION_DOT":3.002e-5,"MEAN_MOTION_DDOT":0},{"OBJECT_NAME":"AISAT","OBJECT_ID":"2014-034B","EPOCH":"2026-04-05T04:17:53.323296","MEAN_MOTION":15.07423337,"ECCENTRICITY":0.00111008,"INCLINATION":98.2425,"RA_OF_ASC_NODE":2.3404,"ARG_OF_PERICENTER":105.7199,"MEAN_ANOMALY":254.5252,"EPHEMERIS_TYPE":0,"CLASSIFICATION_TYPE":"U","NORAD_CAT_ID":40054,"ELEMENT_SET_NO":999,"REV_AT_EPOCH":63620,"BSTAR":0.00092494406,"MEAN_MOTION_DOT":0.00013976,"MEAN_MOTION_DDOT":0},{"OBJECT_NAME":"CANX-4","OBJECT_ID":"2014-034C","EPOCH":"2026-04-05T04:39:07.550496","MEAN_MOTION":14.81132609,"ECCENTRICITY":0.00115806,"INCLINATION":98.3228,"RA_OF_ASC_NODE":327.792,"ARG_OF_PERICENTER":243.5869,"MEAN_ANOMALY":116.4154,"EPHEMERIS_TYPE":0,"CLASSIFICATION_TYPE":"U","NORAD_CAT_ID":40055,"ELEMENT_SET_NO":999,"REV_AT_EPOCH":63372,"BSTAR":0.0002078397,"MEAN_MOTION_DOT":1.559e-5,"MEAN_MOTION_DDOT":0},{"OBJECT_NAME":"CANX-5","OBJECT_ID":"2014-034D","EPOCH":"2026-04-05T04:38:04.695360","MEAN_MOTION":14.81149489,"ECCENTRICITY":0.00115955,"INCLINATION":98.323,"RA_OF_ASC_NODE":327.8305,"ARG_OF_PERICENTER":243.8317,"MEAN_ANOMALY":116.1702,"EPHEMERIS_TYPE":0,"CLASSIFICATION_TYPE":"U","NORAD_CAT_ID":40056,"ELEMENT_SET_NO":999,"REV_AT_EPOCH":62453,"BSTAR":0.00020865588,"MEAN_MOTION_DOT":1.566e-5,"MEAN_MOTION_DDOT":0},{"OBJECT_NAME":"VELOX-I","OBJECT_ID":"2014-034E","EPOCH":"2026-04-05T07:03:56.501280","MEAN_MOTION":14.9722641,"ECCENTRICITY":0.00078368,"INCLINATION":98.2603,"RA_OF_ASC_NODE":356.1854,"ARG_OF_PERICENTER":141.102,"MEAN_ANOMALY":219.0765,"EPHEMERIS_TYPE":0,"CLASSIFICATION_TYPE":"U","NORAD_CAT_ID":40057,"ELEMENT_SET_NO":999,"REV_AT_EPOCH":63569,"BSTAR":0.00074437795,"MEAN_MOTION_DOT":8.562e-5,"MEAN_MOTION_DDOT":0},{"OBJECT_NAME":"GONETS-M 10","OBJECT_ID":"2014-036C","EPOCH":"2026-04-05T05:22:23.376288","MEAN_MOTION":12.42943275,"ECCENTRICITY":0.00212493,"INCLINATION":82.5168,"RA_OF_ASC_NODE":352.9992,"ARG_OF_PERICENTER":303.753,"MEAN_ANOMALY":56.1525,"EPHEMERIS_TYPE":0,"CLASSIFICATION_TYPE":"U","NORAD_CAT_ID":40063,"ELEMENT_SET_NO":999,"REV_AT_EPOCH":53318,"BSTAR":-8.3992744e-5,"MEAN_MOTION_DOT":-2.0e-8,"MEAN_MOTION_DDOT":0},{"OBJECT_NAME":"METEOR-M 2","OBJECT_ID":"2014-037A","EPOCH":"2026-04-05T05:18:08.377056","MEAN_MOTION":14.21440272,"ECCENTRICITY":0.00045554,"INCLINATION":98.5065,"RA_OF_ASC_NODE":73.5665,"ARG_OF_PERICENTER":245.9546,"MEAN_ANOMALY":114.1155,"EPHEMERIS_TYPE":0,"CLASSIFICATION_TYPE":"U","NORAD_CAT_ID":40069,"ELEMENT_SET_NO":999,"REV_AT_EPOCH":60895,"BSTAR":0.00017679834,"MEAN_MOTION_DOT":3.44e-6,"MEAN_MOTION_DDOT":0},{"OBJECT_NAME":"DX1","OBJECT_ID":"2014-037C","EPOCH":"2026-04-05T06:58:23.564928","MEAN_MOTION":14.89758609,"ECCENTRICITY":0.00079437,"INCLINATION":98.3809,"RA_OF_ASC_NODE":52.6137,"ARG_OF_PERICENTER":140.683,"MEAN_ANOMALY":219.4964,"EPHEMERIS_TYPE":0,"CLASSIFICATION_TYPE":"U","NORAD_CAT_ID":40071,"ELEMENT_SET_NO":999,"REV_AT_EPOCH":63525,"BSTAR":0.00061174753,"MEAN_MOTION_DOT":5.807e-5,"MEAN_MOTION_DDOT":0},{"OBJECT_NAME":"UKUBE-1","OBJECT_ID":"2014-037F","EPOCH":"2026-04-05T05:16:22.628640","MEAN_MOTION":15.12405864,"ECCENTRICITY":0.00030118,"INCLINATION":98.4247,"RA_OF_ASC_NODE":90.898,"ARG_OF_PERICENTER":74.461,"MEAN_ANOMALY":285.695,"EPHEMERIS_TYPE":0,"CLASSIFICATION_TYPE":"U","NORAD_CAT_ID":40074,"ELEMENT_SET_NO":999,"REV_AT_EPOCH":63752,"BSTAR":0.00070056039,"MEAN_MOTION_DOT":0.00012101,"MEAN_MOTION_DDOT":0},{"OBJECT_NAME":"GAOFEN-2","OBJECT_ID":"2014-049A","EPOCH":"2026-04-05T06:27:12.091680","MEAN_MOTION":14.80816392,"ECCENTRICITY":0.00087062,"INCLINATION":98.017,"RA_OF_ASC_NODE":159.5284,"ARG_OF_PERICENTER":106.6903,"MEAN_ANOMALY":253.5266,"EPHEMERIS_TYPE":0,"CLASSIFICATION_TYPE":"U","NORAD_CAT_ID":40118,"ELEMENT_SET_NO":999,"REV_AT_EPOCH":62844,"BSTAR":0.00020002913,"MEAN_MOTION_DOT":1.49e-5,"MEAN_MOTION_DDOT":0},{"OBJECT_NAME":"BRITE-PL2 (HEWELIUSZ)","OBJECT_ID":"2014-049B","EPOCH":"2026-04-05T06:11:29.153184","MEAN_MOTION":14.94328731,"ECCENTRICITY":0.00137718,"INCLINATION":97.9006,"RA_OF_ASC_NODE":206.7466,"ARG_OF_PERICENTER":358.1861,"MEAN_ANOMALY":1.9307,"EPHEMERIS_TYPE":0,"CLASSIFICATION_TYPE":"U","NORAD_CAT_ID":40119,"ELEMENT_SET_NO":999,"REV_AT_EPOCH":63055,"BSTAR":0.0003696998,"MEAN_MOTION_DOT":3.922e-5,"MEAN_MOTION_DDOT":0},{"OBJECT_NAME":"CBERS 4","OBJECT_ID":"2014-079A","EPOCH":"2026-04-05T06:27:21.112704","MEAN_MOTION":14.35575918,"ECCENTRICITY":4.265e-5,"INCLINATION":98.3424,"RA_OF_ASC_NODE":154.4237,"ARG_OF_PERICENTER":136.9254,"MEAN_ANOMALY":223.1965,"EPHEMERIS_TYPE":0,"CLASSIFICATION_TYPE":"U","NORAD_CAT_ID":40336,"ELEMENT_SET_NO":999,"REV_AT_EPOCH":59349,"BSTAR":0.00012011968,"MEAN_MOTION_DOT":3.04e-6,"MEAN_MOTION_DDOT":0},{"OBJECT_NAME":"SMAP","OBJECT_ID":"2015-003A","EPOCH":"2026-04-05T06:14:01.898880","MEAN_MOTION":14.63374603,"ECCENTRICITY":0.00019268,"INCLINATION":98.1307,"RA_OF_ASC_NODE":103.3782,"ARG_OF_PERICENTER":94.1912,"MEAN_ANOMALY":265.951,"EPHEMERIS_TYPE":0,"CLASSIFICATION_TYPE":"U","NORAD_CAT_ID":40376,"ELEMENT_SET_NO":999,"REV_AT_EPOCH":59695,"BSTAR":0.00015428795,"MEAN_MOTION_DOT":7.5e-6,"MEAN_MOTION_DDOT":0},{"OBJECT_NAME":"GONETS-M 11","OBJECT_ID":"2015-020A","EPOCH":"2026-04-05T07:39:10.423296","MEAN_MOTION":12.42873588,"ECCENTRICITY":0.00163708,"INCLINATION":82.4818,"RA_OF_ASC_NODE":76.3921,"ARG_OF_PERICENTER":156.8344,"MEAN_ANOMALY":203.3477,"EPHEMERIS_TYPE":0,"CLASSIFICATION_TYPE":"U","NORAD_CAT_ID":40552,"ELEMENT_SET_NO":999,"REV_AT_EPOCH":49968,"BSTAR":-0.00067623547,"MEAN_MOTION_DOT":-8.4e-7,"MEAN_MOTION_DDOT":0},{"OBJECT_NAME":"GONETS-M 12","OBJECT_ID":"2015-020B","EPOCH":"2026-04-05T07:02:14.569152","MEAN_MOTION":12.42888917,"ECCENTRICITY":0.00156784,"INCLINATION":82.485,"RA_OF_ASC_NODE":77.5132,"ARG_OF_PERICENTER":141.6494,"MEAN_ANOMALY":218.5703,"EPHEMERIS_TYPE":0,"CLASSIFICATION_TYPE":"U","NORAD_CAT_ID":40553,"ELEMENT_SET_NO":999,"REV_AT_EPOCH":49967,"BSTAR":-0.00031085444,"MEAN_MOTION_DOT":-3.3e-7,"MEAN_MOTION_DDOT":0},{"OBJECT_NAME":"GONETS-M 13","OBJECT_ID":"2015-020C","EPOCH":"2026-04-05T06:22:17.459040","MEAN_MOTION":12.42867682,"ECCENTRICITY":0.00145607,"INCLINATION":82.4813,"RA_OF_ASC_NODE":76.1664,"ARG_OF_PERICENTER":126.8336,"MEAN_ANOMALY":233.4081,"EPHEMERIS_TYPE":0,"CLASSIFICATION_TYPE":"U","NORAD_CAT_ID":40554,"ELEMENT_SET_NO":999,"REV_AT_EPOCH":49964,"BSTAR":-0.00023721438,"MEAN_MOTION_DOT":-2.3e-7,"MEAN_MOTION_DDOT":0},{"OBJECT_NAME":"DMC3-FM1","OBJECT_ID":"2015-032A","EPOCH":"2026-04-05T06:22:04.480896","MEAN_MOTION":14.85661544,"ECCENTRICITY":0.00042544,"INCLINATION":97.6565,"RA_OF_ASC_NODE":323.2606,"ARG_OF_PERICENTER":305.3402,"MEAN_ANOMALY":54.7416,"EPHEMERIS_TYPE":0,"CLASSIFICATION_TYPE":"U","NORAD_CAT_ID":40715,"ELEMENT_SET_NO":999,"REV_AT_EPOCH":57908,"BSTAR":0.00021066208,"MEAN_MOTION_DOT":1.774e-5,"MEAN_MOTION_DDOT":0},{"OBJECT_NAME":"DMC3-FM2","OBJECT_ID":"2015-032B","EPOCH":"2026-04-05T05:17:09.625056","MEAN_MOTION":14.856618,"ECCENTRICITY":0.00049191,"INCLINATION":97.662,"RA_OF_ASC_NODE":324.741,"ARG_OF_PERICENTER":311.3844,"MEAN_ANOMALY":48.6948,"EPHEMERIS_TYPE":0,"CLASSIFICATION_TYPE":"U","NORAD_CAT_ID":40716,"ELEMENT_SET_NO":999,"REV_AT_EPOCH":57907,"BSTAR":0.000110087,"MEAN_MOTION_DOT":9.03e-6,"MEAN_MOTION_DDOT":0},{"OBJECT_NAME":"DMC3-FM3","OBJECT_ID":"2015-032C","EPOCH":"2026-04-05T05:50:24.353088","MEAN_MOTION":14.85660484,"ECCENTRICITY":0.00041857,"INCLINATION":97.6671,"RA_OF_ASC_NODE":326.469,"ARG_OF_PERICENTER":311.6614,"MEAN_ANOMALY":48.4243,"EPHEMERIS_TYPE":0,"CLASSIFICATION_TYPE":"U","NORAD_CAT_ID":40717,"ELEMENT_SET_NO":999,"REV_AT_EPOCH":57908,"BSTAR":0.00012373098,"MEAN_MOTION_DOT":1.021e-5,"MEAN_MOTION_DDOT":0},{"OBJECT_NAME":"CARBONITE 1 (CBNT-1)","OBJECT_ID":"2015-032D","EPOCH":"2026-04-05T06:26:00.767616","MEAN_MOTION":14.83355532,"ECCENTRICITY":0.00147145,"INCLINATION":97.6485,"RA_OF_ASC_NODE":276.4066,"ARG_OF_PERICENTER":168.2673,"MEAN_ANOMALY":191.8887,"EPHEMERIS_TYPE":0,"CLASSIFICATION_TYPE":"U","NORAD_CAT_ID":40718,"ELEMENT_SET_NO":999,"REV_AT_EPOCH":57853,"BSTAR":0.00026617218,"MEAN_MOTION_DOT":2.135e-5,"MEAN_MOTION_DDOT":0}]
